ATLANTIS                
1 42737U 98067MS  17204.62116357  .00020846  00000-0  28822-3 0  9993
2 42737  51.6372 215.9333 0009659  69.7267 290.4763 15.57051807  8964
LEMUR-2-ANGELA          
1 42752U 17019B   17204.56519046  .00000310  00000-0  24388-4 0  9991
2 42752  51.6408 225.9186 0011465 110.7077 249.5132 15.27488804  6851
LEMUR-2-JENNYBARNA      
1 42753U 17019C   17204.89125592  .00000805  00000-0  42418-4 0  9990
2 42753  51.6408 224.3459 0011351 111.5622 248.6568 15.27555703  6853
LEMUR-2-ROBMOORE        
1 42754U 17019D   17204.50173318  .00000307  00000-0  24336-4 0  9994
2 42754  51.6409 226.2440 0011413 112.9737 247.2447 15.27420288  6824
LEMUR-2-SPIROVISION     
1 42755U 17019E   17204.50103907  .00000610  00000-0  35401-4 0  9994
2 42755  51.6407 226.2390 0011372 112.7233 247.4949 15.27459695  6711
UCLSAT                  
1 42765U 17036A   17204.73731314  .00001305  00000-0  62371-4 0  9996
2 42765  97.4476 264.1481 0013226 141.1000 219.1190 15.20729655  5369
LITUANICASAT-2          
1 42768U 17036D   17204.89204299  .00002111  00000-0  10197-3 0  9997
2 42768  97.4474 264.2469 0017831 131.5287 228.7481 15.19608325  4673
INFLATESAIL             
1 42770U 17036F   17204.88114767  .00168355  00000-0  59240-2 0  9993
2 42770  97.4491 264.4128 0016235 175.1130 185.0271 15.28500200  4616
LEMUR-2-SHAINAJOHL      
1 42771U 17036G   17204.88859509  .00001814  00000-0  87710-4 0  9995
2 42771  97.4477 264.2524 0016863 130.5255 229.7452 15.19774566  4614
LEMUR-2-XUENITERENCE    
1 42772U 17036H   17204.88745790  .00001803  00000-0  87058-4 0  9995
2 42772  97.4476 264.2534 0016582 130.0038 230.2656 15.19828841  4616
LEMUR-2-LUCYBRYCE       
1 42773U 17036J   17204.88647215  .00001968  00000-0  94606-4 0  9998
2 42773  97.4476 264.2550 0016366 130.0213 230.2461 15.19879942  4612
LEMUR-2-KUNGFOO         
1 42774U 17036K   17204.88595938  .00001434  00000-0  69782-4 0  9998
2 42774  97.4479 264.2569 0016261 129.9216 230.3450 15.19895749  4601
AALTO-1                 
1 42775U 17036L   17204.88393797  .00000893  00000-0  44601-4 0  9999
2 42775  97.4478 264.2592 0015837 128.7502 231.5151 15.19972237  4610
URSA MAIOR              
1 42776U 17036M   17204.88319507  .00000901  00000-0  44932-4 0  9994
2 42776  97.4479 264.2612 0015717 129.0908 231.1728 15.20009591  4618
COMPASS 2               
1 42777U 17036N   17204.94389807  .00001556  00000-0  74655-4 0  9994
2 42777  97.4488 264.3369 0014750 132.8286 227.4191 15.20288254  4613
LEMUR-2-LYNSEY-SYMO     
1 42779U 17036Q   17204.93999758  .00001578  00000-0  75269-4 0  9993
2 42779  97.4480 264.3384 0014197 138.8421 221.3888 15.20484356  4602
LEMUR-2-LISASAURUS      
1 42780U 17036R   17204.93942150  .00001539  00000-0  73452-4 0  9998
2 42780  97.4478 264.3378 0014047 138.6437 221.5865 15.20506550  4612
LEMUR-2-SAM-AMELIA      
1 42781U 17036S   17204.93904826  .00001744  00000-0  82723-4 0  9996
2 42781  97.4477 264.3378 0014013 138.9483 221.2809 15.20536759  4607
LEMUR-2-MCPEAKE         
1 42782U 17036T   17204.93848024  .00001633  00000-0  77604-4 0  9993
2 42782  97.4479 264.3395 0013881 138.7724 221.4562 15.20563627  4609
DIAMOND RED             
1 42783U 17036U   17204.93784208  .00001061  00000-0  51518-4 0  9998
2 42783  97.4477 264.3396 0013857 140.3049 219.9203 15.20566909  4612
PEGASUS                 
1 42784U 17036V   17204.93728966  .00001189  00000-0  57304-4 0  9998
2 42784  97.4478 264.3409 0013778 140.4492 219.7751 15.20599855  4616
DIAMOND GREEN           
1 42785U 17036W   17204.93707174  .00001009  00000-0  49125-4 0  9990
2 42785  97.4479 264.3415 0013716 140.3633 219.8608 15.20605155  4683
DIAMOND BLUE            
1 42786U 17036X   17204.93611088  .00000799  00000-0  39472-4 0  9998
2 42786  97.4478 264.3424 0013531 140.6710 219.5511 15.20650828  4684
NUDTSAT                 
1 42787U 17036Y   17204.93530754  .00001702  00000-0  80418-4 0  9990
2 42787  97.4478 264.3430 0013453 140.7514 219.4699 15.20718334  4456
SUCHAI                  
1 42788U 17036Z   17204.93552792  .00001393  00000-0  66413-4 0  9992
2 42788  97.4477 264.3426 0013441 140.5887 219.6329 15.20693792  4686
SKCUBE                  
1 42789U 17036AA  17204.93466132  .00001311  00000-0  62610-4 0  9990
2 42789  97.4476 264.3435 0013246 140.4848 219.7356 15.20734389  4606
VZLUSAT-1               
1 42790U 17036AB  17204.93326092  .00001516  00000-0  71781-4 0  9998
2 42790  97.4474 264.3440 0012989 140.8211 219.3967 15.20810873  4600
ROBUSTA-1B              
1 42792U 17036AD  17204.93222135  .00001356  00000-0  64438-4 0  9996
2 42792  97.4474 264.3453 0012781 141.4705 218.7445 15.20856402  4614
CICERO 6                
1 42793U 17036AE  17204.92803505  .00001018  00000-0  48899-4 0  9990
2 42793  97.4473 264.3507 0011810 141.7277 218.4799 15.21049872  4685
D-SAT                   
1 42794U 17036AF  17204.92650186  .00000803  00000-0  39176-4 0  9995
2 42794  97.4471 264.3517 0011026 138.7869 221.4201 15.21121094  4608
1998-067MU              
1 42820U 98067MU  17204.48622850  .00009292  00000-0  14181-3 0  9995
2 42820  51.6379 217.2818 0004195  27.3819 332.7392 15.55206849  2519
1998-067MV              
1 42821U 98067MV  17204.48659848  .00008874  00000-0  13596-3 0  9997
2 42821  51.6380 217.2842 0004247  29.2721 330.8507 15.55165676  2496
1998-067MW              
1 42822U 98067MW  17204.93671119  .00009499  00000-0  14510-3 0  9994
2 42822  51.6381 215.0405 0004305  32.5839 327.5417 15.55150118  2578
1998-067MX              
1 42823U 98067MX  17204.48738548  .00009416  00000-0  14409-3 0  9991
2 42823  51.6382 217.2907 0007967  42.9132 317.2479 15.55096192  2484
1998-067MY              
1 42824U 98067MY  17204.61644899  .00009338  00000-0  14323-3 0  9990
2 42824  51.6381 216.6527 0007776  44.3465 315.8148 15.55045262  2522
FLOCK 2K-03             
1 42850U 17042AB  17204.93673408  .00002568  00000-0  84448-4 0  9990
2 42850  97.0022 113.4243 0011280 213.0180 147.0360 15.32327560  1282
FLOCK 2K-04             
1 42851U 17042AC  17204.93678951  .00001550  00000-0  51935-4 0  9994
2 42851  97.0021 113.4242 0010958 213.2116 146.8440 15.32299656  1283
FLOCK 2K-01             
1 42852U 17042AD  17204.93662998  .00001557  00000-0  52096-4 0  9995
2 42852  97.0020 113.4245 0010936 212.6926 147.3641 15.32325958  1288
FLOCK 2K-02             
1 42853U 17042AE  17204.93658810  .00001596  00000-0  53351-4 0  9992
2 42853  97.0023 113.4248 0010790 212.3367 147.7215 15.32333252  1286
FLOCK 2K-47             
1 42854U 17042AF  17204.93637355  .00001579  00000-0  52741-4 0  9997
2 42854  97.0018 113.4244 0010804 211.5553 148.5043 15.32368284  1282
FLOCK 2K-48             
1 42855U 17042AG  17204.93630110  .00001572  00000-0  52491-4 0  9995
2 42855  97.0022 113.4250 0010799 211.3994 148.6605 15.32380122  1285
FLOCK 2K-45             
1 42856U 17042AH  17204.93615552  .00001569  00000-0  52370-4 0  9991
2 42856  97.0020 113.4249 0010828 211.0340 149.0265 15.32404075  1288
FLOCK 2K-24             
1 42857U 17042AJ  17204.93594063  .00001578  00000-0  52606-4 0  9997
2 42857  97.0018 113.4248 0010760 210.3829 149.6791 15.32439499  1282
FLOCK 2K-46             
1 42858U 17042AK  17204.93591755  .00001578  00000-0  52576-4 0  9999
2 42858  97.0022 113.4256 0010909 210.3992 149.6620 15.32442731  1287
FLOCK 2K-23             
1 42859U 17042AL  17204.93588791  .00001547  00000-0  51594-4 0  9991
2 42859  97.0021 113.4255 0010858 210.3279 149.7337 15.32447594  1285
FLOCK 2K-21             
1 42860U 17042AM  17204.93573751  .00001557  00000-0  51878-4 0  9999
2 42860  97.0021 113.4256 0010827 209.8171 150.2457 15.32472707  1282
FLOCK 2K-22             
1 42861U 17042AN  17204.67438767  .00001629  00000-0  54131-4 0  9993
2 42861  97.0021 113.1789 0010878 210.6354 149.4255 15.32499801  1246
FLOCK 2K-07             
1 42862U 17042AP  17204.93531633  .00001570  00000-0  52161-4 0  9995
2 42862  97.0021 113.4262 0011010 208.9250 151.1384 15.32541795  1298
FLOCK 2K-08             
1 42863U 17042AQ  17204.93522176  .00001590  00000-0  52781-4 0  9998
2 42863  97.0019 113.4258 0011052 209.1632 150.8995 15.32557784  1282
FLOCK 2K-05             
1 42864U 17042AR  17204.93504288  .00001590  00000-0  52722-4 0  9998
2 42864  97.0020 113.4264 0011123 208.8719 151.1909 15.32587224  1284
FLOCK 2K-40             
1 42865U 17042AS  17204.86967140  .00001620  00000-0  53652-4 0  9998
2 42865  97.0021 113.3650 0011031 209.4350 150.6273 15.32600399  1276
FLOCK 2K-39             
1 42866U 17042AT  17204.86963283  .00001582  00000-0  52457-4 0  9992
2 42866  97.0020 113.3648 0011112 209.1073 150.9552 15.32606118  1270
FLOCK 2K-37             
1 42867U 17042AU  17204.93489762  .00001605  00000-0  53182-4 0  9998
2 42867  97.0020 113.4267 0011043 208.7079 151.3558 15.32611232  1288
FLOCK 2K-38             
1 42868U 17042AV  17204.93471479  .00001596  00000-0  52829-4 0  9991
2 42868  97.0020 113.4270 0011124 208.7579 151.3052 15.32641265  1286
FLOCK 2K-31             
1 42869U 17042AW  17204.93453400  .00001613  00000-0  53305-4 0  9996
2 42869  97.0019 113.4268 0011211 208.6037 151.4592 15.32671149  1281
FLOCK 2K-32             
1 42870U 17042AX  17204.93441462  .00001599  00000-0  52842-4 0  9991
2 42870  97.0020 113.4273 0011240 208.9224 151.1397 15.32690692  1288
FLOCK 2K-29             
1 42871U 17042AY  17204.93436873  .00001611  00000-0  53206-4 0  9992
2 42871  97.0021 113.4276 0011240 208.5684 151.4944 15.32698316  1281
FLOCK 2K-30             
1 42872U 17042AZ  17204.93414885  .00001617  00000-0  53356-4 0  9994
2 42872  97.0020 113.4274 0011341 208.8859 151.1758 15.32734507  1270
FLOCK 2K-44             
1 42873U 17042BA  17204.93378413  .00001703  00000-0  55923-4 0  9999
2 42873  97.0021 113.4287 0012316 198.7655 161.3135 15.32794720  1286
